[{"OBJECT_NAME":"STARLINK-5809","OBJECT_ID":"2023-028AL","EPOCH":"2026-03-09T21:10:16.131360","MEAN_MOTION":14.98325152,"ECCENTRICITY":0.00030301,"INCLINATION":70,"RA_OF_ASC_NODE":223.8992,"ARG_OF_PERICENTER":264.6746,"MEAN_ANOMALY":95.4068,"EPHEMERIS_TYPE":0,"CLASSIFICATION_TYPE":"U","NORAD_CAT_ID":55775,"ELEMENT_SET_NO":999,"REV_AT_EPOCH":16656,"BSTAR":5.2632042e-5,"MEAN_MOTION_DOT":5.35e-6,"MEAN_MOTION_DDOT":0},{"OBJECT_NAME":"FENGYUN 1C DEB","OBJECT_ID":"1999-025BRA","EPOCH":"2026-03-07T21:38:03.570144","MEAN_MOTION":15.14550758,"ECCENTRICITY":0.01045185,"INCLINATION":98.8762,"RA_OF_ASC_NODE":52.6466,"ARG_OF_PERICENTER":91.2586,"MEAN_ANOMALY":270.0618,"EPHEMERIS_TYPE":0,"CLASSIFICATION_TYPE":"U","NORAD_CAT_ID":31346,"ELEMENT_SET_NO":999,"REV_AT_EPOCH":773,"BSTAR":0.0014203897,"MEAN_MOTION_DOT":0.00030047,"MEAN_MOTION_DDOT":0}]
